[{"OBJECT_NAME":"HULIANWANG DIGUI-148","OBJECT_ID":"2026-013C","EPOCH":"2026-03-09T18:05:53.473632","MEAN_MOTION":13.45277942,"ECCENTRICITY":0.00018665,"INCLINATION":50.0248,"RA_OF_ASC_NODE":352.9867,"ARG_OF_PERICENTER":347.0567,"MEAN_ANOMALY":13.0264,"EPHEMERIS_TYPE":0,"CLASSIFICATION_TYPE":"U","NORAD_CAT_ID":67524,"ELEMENT_SET_NO":999,"REV_AT_EPOCH":681,"BSTAR":0.00015432174,"MEAN_MOTION_DOT":-3.8e-7,"MEAN_MOTION_DDOT":0},{"OBJECT_NAME":"DELTA 1 DEB","OBJECT_ID":"1976-077AZ","EPOCH":"2026-03-09T03:39:54.403200","MEAN_MOTION":12.83401846,"ECCENTRICITY":0.03142117,"INCLINATION":101.7378,"RA_OF_ASC_NODE":326.09,"ARG_OF_PERICENTER":195.0445,"MEAN_ANOMALY":330.4386,"EPHEMERIS_TYPE":0,"CLASSIFICATION_TYPE":"U","NORAD_CAT_ID":10752,"ELEMENT_SET_NO":999,"REV_AT_EPOCH":29050,"BSTAR":0.020802499,"MEAN_MOTION_DOT":6.084e-5,"MEAN_MOTION_DDOT":0}]
